0 LILACSAT 2
1 40908U 15049K   26156.33859483  .00016994  00000-0  29366-3 0  9991
2 40908  97.4655 192.7326 0005356 302.9708  57.1028 15.51036748593917
0 VELOX 1
1 40057U 14034E   26156.23400076  .00005323  00000-0  45865-3 0  9994
2 40057  98.2566  60.5600 0006503 327.1916  32.8900 14.97779838644812
0 CANX-4
1 40055U 14034C   26155.45230034  .00001206  00000-0  16196-3 0  9991
2 40055  98.3135  30.2971 0013905  55.6030 304.6494 14.81240766642645
0 AISAT
1 40054U 14034B   26155.76117988  .00011917  00000-0  76579-3 0  9997
2 40054  98.2398  67.2644 0007452 263.2746  96.7632 15.08581455645337
TIGRISAT
1 40043U 14033AK  26156.05570919  .00002731  00000-0  31842-3 0  9992
2 40043  97.7823 306.3468 0050659 113.8962 246.7573 14.85112493643829
0 UKUBE 1
1 40074U 14037F   26156.26761106  .00008356  00000-0  47284-3 0  9999
2 40074  98.4240 158.2892 0001842 145.3737 214.7611 15.13353637646751
0 POLYITAN 1
1 40042U 14033AJ  26156.04237672  .00021892  00000-0  69172-3 0  9992
2 40042  98.0948 181.1587 0007713 177.6399 182.4878 15.32815214651733
0 QB50P1
1 40025U 14033R   26156.28625996  .00008026  00000-0  39735-3 0  9995
2 40025  98.0971 166.5996 0007025 264.5036  95.5395 15.18070423651222
QB50P2
1 40032U 14033Y   26156.21211322  .00007245  00000-0  39174-3 0  9999
2 40032  98.0754 152.3486 0006748 204.2735 155.8179 15.14995805650858
0 DTUSAT 2
1 40030U 14033W   26155.22591472  .00007774  00000-0  42187-3 0  9999
2 40030  98.0864 152.1319 0006144 280.7902  79.2636 15.14842658650726
DUCHIFAT-1
1 40021U 14033M   26155.66830056  .00095076  00000-0  10761-2 0  9995
2 40021  98.0472 213.0954 0004853 139.0185 221.1436 15.62101054653794
0 CANX-5
1 40056U 14034D   26155.45088093  .00001213  00000-0  16272-3 0  9991
2 40056  98.3138  30.3384 0013906  55.6451 304.6073 14.81257887633450
0 DX 1
1 40071U 14037C   26156.27331487  .00001546  00000-0  16703-3 0  9998
2 40071  98.3871 117.2540 0006385 323.1208  36.9568 14.89948335644332
0 METEOR M2
1 40069U 14037A   26156.24967234  .00000254  00000-0  13549-3 0  9997
2 40069  98.5112 132.4115 0007052  72.8514 287.3435 14.21458751617627
0 DEORBITSAIL
1 40719U 15032E   26156.04688088  .00006387  00000-0  46986-3 0  9994
2 40719  97.5902  13.1066 0010772 277.6733  82.3269 15.03683563589422
0 OBJECT G
1 40905U 15049G   26156.29121909  .00039928  00000-0  39937-3 0  9995
2 40905  97.4560 199.6569 0003841 237.6285 122.4603 15.65481392594588
0 PERSEUS M1
1 40039U 14033AF  26155.05690024  .00002617  00000-0  24106-3 0  9994
2 40039  97.9641  98.9742 0011068 349.8422  10.2573 14.95587199648678
0 SMAP
1 40376U 15003A   26156.25074380  .00000482  00000-0  10234-3 0  9995
2 40376  98.1276 163.5145 0001259  90.8569 269.2778 14.63355706605871
0 BRITE-PL 2
1 40119U 14049B   26155.25097445  .00002888  00000-0  27217-3 0  9996
2 40119  97.9085 267.1526 0014907 148.0147 212.1981 14.94543231639514
0 DMC 3-FM1
1 40715U 15032A   26156.28470453  .00000187  00000-0  27468-4 0  9998
2 40715  97.6470  21.9259 0007117  89.2798 270.9233 14.85723466588147
0 DMC 3-FM2
1 40716U 15032B   26156.23945347  .00000391  00000-0  50936-4 0  9996
2 40716  97.6524  23.4476 0007552  94.5572 265.6506 14.85728074588131
0 DMC 3-FM3
1 40717U 15032C   26156.26269606  .00001081  00000-0  13041-3 0  9999
2 40717  97.6577  25.2158 0006831  94.5952 265.6044 14.85720754588143
0 CARBONITE 1
1 40718U 15032D   26156.31195020  .00001564  00000-0  19581-3 0  9995
2 40718  97.6501 334.8758 0013985 339.6975  20.3682 14.83548370587583
0 CBERS-4
1 40336U 14079A   26156.32727325  .00000145  00000-0  64973-4 0  9991
2 40336  98.3532 213.5304 0002070  75.9571 284.1845 14.35506044602258
0 GONETS M 10 (M20)
1 40063U 14036C   26156.23791394  .00000090  00000-0  57708-3 0  9994
2 40063  82.5108 315.0978 0022179 165.8987 194.2716 12.42945446540760
0 GONETS M 11 (M21)
1 40552U 15020A   26156.25571932  .00000046  00000-0  26066-3 0  9991
2 40552  82.4877  38.4269 0017085  30.7443 329.4634 12.42876747507256
0 GONETS M 12 (M22)
1 40553U 15020B   26156.30983963  .00000088  00000-0  56402-3 0  9992
2 40553  82.4910  39.5138 0015878  16.2454 343.9131 12.42891049507256
0 GONETS M 13 (M23)
1 40554U 15020C   26156.28312086  .00000063  00000-0  38697-3 0  9991
2 40554  82.4872  38.1491 0014232   2.0475 358.0661 12.42869897507228
0 GAOFEN 2
1 40118U 14049A   26156.28439422  .00001079  00000-0  14658-3 0  9990
2 40118  98.0108 220.5025 0005876 274.3680  85.6860 14.80887751637473
