OBJECT_NAME,OBJECT_ID,EPOCH,MEAN_MOTION,ECCENTRICITY,INCLINATION,RA_OF_ASC_NODE,ARG_OF_PERICENTER,MEAN_ANOMALY,EPHEMERIS_TYPE,CLASSIFICATION_TYPE,NORAD_CAT_ID,ELEMENT_SET_NO,REV_AT_EPOCH,BSTAR,MEAN_MOTION_DOT,MEAN_MOTION_DDOT
DUCHIFAT-1,2014-033M,2026-06-04T16:02:21.168384,15.62101054,.00048528,98.0472,213.0954,139.0185,221.1436,0,U,40021,999,65379,.10760804E-2,.95076E-3,0
QB50P1,2014-033R,2026-06-05T06:52:12.860544,15.18070423,.00070248,98.0971,166.5996,264.5036,95.5395,0,U,40025,999,65122,.39734895E-3,.8026E-4,0
DTUSAT-2,2014-033W,2026-06-04T05:25:19.031808,15.14842658,.00061437,98.0864,152.1319,280.7902,79.2636,0,U,40030,999,65072,.42187473E-3,.7774E-4,0
QB50P2,2014-033Y,2026-06-05T05:05:26.582208,15.14995805,.00067475,98.0754,152.3486,204.2735,155.8179,0,U,40032,999,65085,.39173692E-3,.7245E-4,0
PERSEUS-M1,2014-033AF,2026-06-04T01:21:56.180736,14.95587199,.00110683,97.9641,98.9742,349.8422,10.2573,0,U,40039,999,64867,.24106212E-3,.2617E-4,0
POLYITAN-1,2014-033AJ,2026-06-05T01:01:01.348608,15.32815214,.00077135,98.0948,181.1587,177.6399,182.4878,0,U,40042,999,65173,.69172249E-3,.21892E-3,0
TIGRISAT,2014-033AK,2026-06-05T01:20:13.274016,14.85112493,.00506586,97.7823,306.3468,113.8962,246.7573,0,U,40043,999,64382,.31842136E-3,.2731E-4,0
AISAT,2014-034B,2026-06-04T18:16:05.941632,15.08581455,.00074523,98.2398,67.2644,263.2746,96.7632,0,U,40054,999,64533,.76578905E-3,.11917E-3,0
CANX-4,2014-034C,2026-06-04T10:51:18.749376,14.81240766,.00139048,98.3135,30.2971,55.6030,304.6494,0,U,40055,999,64264,.16195794E-3,.1206E-4,0
CANX-5,2014-034D,2026-06-04T10:49:16.112352,14.81257887,.00139058,98.3138,30.3384,55.6451,304.6073,0,U,40056,999,63345,.16272442E-3,.1213E-4,0
VELOX-I,2014-034E,2026-06-05T05:36:57.665664,14.97779838,.00065028,98.2566,60.5600,327.1916,32.8900,0,U,40057,999,64481,.45864948E-3,.5323E-4,0
GONETS-M 10,2014-036C,2026-06-05T05:42:35.764416,12.42945446,.00221795,82.5108,315.0978,165.8987,194.2716,0,U,40063,999,54076,.57707972E-3,.9E-6,0
METEOR-M 2,2014-037A,2026-06-05T05:59:31.690176,14.21458751,.0007052,98.5112,132.4115,72.8514,287.3435,0,U,40069,999,61762,.13549094E-3,.254E-5,0
DX1,2014-037C,2026-06-05T06:33:34.404768,14.89948335,.00063847,98.3871,117.2540,323.1208,36.9568,0,U,40071,999,64433,.16703036E-3,.1546E-4,0
UKUBE-1,2014-037F,2026-06-05T06:25:21.595584,15.13353637,.0001842,98.4240,158.2892,145.3737,214.7611,0,U,40074,999,64675,.47283931E-3,.8356E-4,0
GAOFEN-2,2014-049A,2026-06-05T06:49:31.660608,14.80887751,.00058764,98.0108,220.5025,274.3680,85.6860,0,U,40118,999,63747,.1465846E-3,.1079E-4,0
BRITE-PL2 (HEWELIUSZ),2014-049B,2026-06-04T06:01:24.192480,14.94543231,.00149068,97.9085,267.1526,148.0147,212.1981,0,U,40119,999,63951,.27217109E-3,.2888E-4,0
CBERS 4,2014-079A,2026-06-05T07:51:16.408800,14.35506044,.00020696,98.3532,213.5304,75.9571,284.1845,0,U,40336,999,60225,.64973487E-4,.145E-5,0
SMAP,2015-003A,2026-06-05T06:01:04.264320,14.63355706,.00012587,98.1276,163.5145,90.8569,269.2778,0,U,40376,999,60587,.10234089E-3,.482E-5,0
GONETS-M 11,2015-020A,2026-06-05T06:08:14.149248,12.42876747,.00170846,82.4877,38.4269,30.7443,329.4634,0,U,40552,999,50725,.26065821E-3,.46E-6,0
GONETS-M 12,2015-020B,2026-06-05T07:26:10.144032,12.42891049,.00158782,82.4910,39.5138,16.2454,343.9131,0,U,40553,999,50725,.56401711E-3,.88E-6,0
GONETS-M 13,2015-020C,2026-06-05T06:47:41.642304,12.42869897,.00142316,82.4872,38.1491,2.0475,358.0661,0,U,40554,999,50722,.38697152E-3,.63E-6,0
DMC3-FM1,2015-032A,2026-06-05T06:49:58.471392,14.85723466,.00071168,97.6470,21.9259,89.2798,270.9233,0,U,40715,999,58814,.27468315E-4,.187E-5,0
DMC3-FM2,2015-032B,2026-06-05T05:44:48.779808,14.85728074,.00075517,97.6524,23.4476,94.5572,265.6506,0,U,40716,999,58813,.50935895E-4,.391E-5,0
DMC3-FM3,2015-032C,2026-06-05T06:18:16.939584,14.85720754,.00068311,97.6577,25.2158,94.5952,265.6044,0,U,40717,999,58814,.13041227E-3,.1081E-4,0
CARBONITE 1 (CBNT-1),2015-032D,2026-06-05T07:29:12.497280,14.83548370,.00139851,97.6501,334.8758,339.6975,20.3682,0,U,40718,999,58758,.19581338E-3,.1564E-4,0
DEORBITSAIL,2015-032E,2026-06-05T01:07:30.508032,15.03683563,.00107725,97.5902,13.1066,277.6733,82.3269,0,U,40719,999,58942,.46985882E-3,.6387E-4,0
2015-049G,2015-049G,2026-06-05T06:59:21.329376,15.65481392,.00038409,97.4560,199.6569,237.6285,122.4603,0,U,40905,999,59458,.39937468E-3,.39928E-3,0
LILACSAT-2,2015-049K,2026-06-05T08:07:34.593312,15.51036748,.00053564,97.4655,192.7326,302.9708,57.1028,0,U,40908,999,59391,.29366274E-3,.16994E-3,0
